NORAD_CAT_ID,OBJECT_NAME,OBJECT_TYPE,EPOCH,MEAN_MOTION,ECCENTRICITY,INCLINATION,RA_OF_ASC_NODE,ARG_OF_PERICENTER,MEAN_ANOMALY,BSTAR,MEAN_MOTION_DOT,MEAN_MOTION_DDOT,TLE_LINE0,TLE_LINE1,TLE_LINE2,SEMIMAJOR_AXIS,PERIOD,APOGEE,PERIGEE,DECAYED
55438.0,STARLINK-5074,PAYLOAD,2023-03-11 00:54:03,15.69934613,0.0003548,69.9978,341.8686,270.2231,89.8558,2.9563e-05,3.345e-05,0.0,0 STARLINK-5074,1 55438U 23014AZ  23070.03754000  .00003345  00000-0  29563-4 0  9990,2 55438  69.9978 341.8686 0003548 270.2231  89.8558 15.69934613  6228,6737.221,91.724,361.476,356.696,0.0
55438.0,STARLINK-5074,PAYLOAD,2023-03-11 03:57:33,15.6993364,0.0003415,69.9974,341.5108,266.8707,93.2098,2.8448e-05,3.21e-05,0.0,0 STARLINK-5074,1 55438U 23014AZ  23070.16497406  .00003210  00000-0  28448-4 0  9990,2 55438  69.9974 341.5108 0003415 266.8707  93.2098 15.69933640  7185,6737.224,91.724,361.39,356.788,0.0
55438.0,STARLINK-5074,PAYLOAD,2023-03-11 17:43:20,15.69944344,0.0003145,69.999,339.9017,259.2085,100.8757,-3.6896e-05,-4.65e-05,0.0,0 STARLINK-5074,1 55438U 23014AZ  23070.73843379 -.00004650  00000-0 -36896-4 0  9994,2 55438  69.9990 339.9017 0003145 259.2085 100.8757 15.69944344  6334,6737.193,91.723,361.177,356.939,0.0
55438.0,STARLINK-5074,PAYLOAD,2023-03-12 02:53:51,15.69938651,0.0002888,70.0004,338.8245,247.3971,112.692,-2.5165e-05,-3.239e-05,0.0,0 STARLINK-5074,1 55438U 23014AZ  23071.12073131 -.00003239  00000-0 -25165-4 0  9998,2 55438  70.0004 338.8245 0002888 247.3971 112.6920 15.69938651  7337,6737.21,91.723,361.02,357.129,0.0
55438.0,STARLINK-5074,PAYLOAD,2023-03-12 18:11:21,15.6992978,0.0003429,69.9998,337.0345,247.6593,112.424,2.1958e-05,2.429e-05,0.0,0 STARLINK-5074,1 55438U 23014AZ  23071.75789187  .00002429  00000-0  21958-4 0  9996,2 55438  69.9998 337.0345 0003429 247.6593 112.4240 15.69929780  6495,6737.235,91.724,361.41,356.79,0.0
55438.0,STARLINK-5074,PAYLOAD,2023-03-13 01:50:07,15.69937712,0.0003349,69.999,336.1376,257.5097,102.5724,4.3337e-06,3.09e-06,0.0,0 STARLINK-5074,1 55438U 23014AZ  23072.07647337  .00000309  00000-0  43337-5 0  9993,2 55438  69.9990 336.1376 0003349 257.5097 102.5724 15.69937712  7482,6737.212,91.723,361.333,356.821,0.0
55438.0,STARLINK-5074,PAYLOAD,2023-03-14 02:18:11,15.69911832,0.0002584,70.0006,333.2739,269.4327,90.6572,1.2736e-05,1.318e-05,0.0,0 STARLINK-5074,1 55438U 23014AZ  23073.09596165  .00001318  00000-0  12736-4 0  9997,2 55438  70.0006 333.2739 0002584 269.4327  90.6572 15.69911832  6709,6737.286,91.725,360.892,357.41,0.0
55438.0,STARLINK-5074,PAYLOAD,2023-03-15 02:46:12,15.69910895,0.0003239,69.9988,330.4041,261.7602,98.3227,-1.4902e-05,-2.003e-05,0.0,0 STARLINK-5074,1 55438U 23014AZ  23074.11542728 -.00002003  00000-0 -14902-4 0  9998,2 55438  69.9988 330.4041 0003239 261.7602  98.3227 15.69910895  6866,6737.289,91.725,361.336,356.972,0.0
55438.0,STARLINK-5074,PAYLOAD,2023-03-16 01:42:29,15.69918797,0.0003612,69.9975,327.7171,270.9275,89.1507,8.5635e-06,8.17e-06,0.0,0 STARLINK-5074,1 55438U 23014AZ  23075.07117241  .00000817  00000-0  85635-5 0  9993,2 55438  69.9975 327.7171 0003612 270.9275  89.1507 15.69918797  7014,6737.266,91.724,361.565,356.698,0.0
55438.0,STARLINK-5074,PAYLOAD,2023-03-17 02:10:31,15.69917763,0.0003574,69.9979,324.8507,271.2601,88.8185,-1.0781e-05,-1.509e-05,0.0,0 STARLINK-5074,1 55438U 23014AZ  23076.09064698 -.00001509  00000-0 -10781-4 0  9993,2 55438  69.9979 324.8507 0003574 271.2601  88.8185 15.69917763  7170,6737.269,91.725,361.542,356.726,0.0
55438.0,STARLINK-5074,PAYLOAD,2023-03-17 09:49:15,15.69938777,0.0003585,69.9959,323.9549,261.0917,98.9873,2.3789e-05,2.65e-05,0.0,0 STARLINK-5074,1 55438U 23014AZ  23076.40921058  .00002650  00000-0  23789-4 0  9998,2 55438  69.9959 323.9549 0003585 261.0917  98.9873 15.69938777  7223,6737.209,91.723,361.489,356.659,0.0
55438.0,STARLINK-5074,PAYLOAD,2023-03-18 02:38:34,15.69909107,0.0002224,69.9984,321.9849,311.2181,48.8822,7.2631e-06,6.61e-06,0.0,0 STARLINK-5074,1 55438U 23014AZ  23077.11012116  .00000661  00000-0  72631-5 0  9994,2 55438  69.9984 321.9849 0002224 311.2181  48.8822 15.69909107  7337,6737.294,91.725,360.657,357.661,0.0
55438.0,STARLINK-5074,PAYLOAD,2023-03-18 19:27:49,15.69931938,0.000289,69.9976,320.013,280.6256,79.4614,-2.6035e-06,-5.26e-06,0.0,0 STARLINK-5074,1 55438U 23014AZ  23077.81099280 -.00000526  00000-0 -26035-5 0  9997,2 55438  69.9976 320.0130 0002890 280.6256  79.4614 15.69931938  7440,6737.229,91.724,361.041,357.147,0.0
55438.0,STARLINK-5074,PAYLOAD,2023-03-18 22:31:18,15.69944411,0.0003471,69.9962,319.6552,259.3378,100.7426,4.577e-06,3.38e-06,0.0,0 STARLINK-5074,1 55438U 23014AZ  23077.93841359  .00000338  00000-0  45770-5 0  9998,2 55438  69.9962 319.6552 0003471 259.3378 100.7426 15.69944411  8407,6737.193,91.723,361.397,356.72,0.0
55438.0,STARLINK-5074,PAYLOAD,2023-03-19 01:34:49,15.69938183,0.000352,69.9958,319.2964,266.1213,93.958,1.226e-05,1.262e-05,0.0,0 STARLINK-5074,1 55438U 23014AZ  23078.06584758  .00001262  00000-0  12260-4 0  9994,2 55438  69.9958 319.2964 0003520 266.1213  93.9580 15.69938183  7484,6737.211,91.723,361.447,356.704,0.0
55438.0,STARLINK-5074,PAYLOAD,2023-03-19 09:13:36,15.69922872,0.0002626,69.9973,318.4029,260.1088,99.9811,-1.5372e-05,-2.06e-05,0.0,0 STARLINK-5074,1 55438U 23014AZ  23078.38444915 -.00002060  00000-0 -15372-4 0  9995,2 55438  69.9973 318.4029 0002626 260.1088  99.9811 15.69922872  7531,6737.255,91.724,360.889,357.35,0.0
55438.0,STARLINK-5074,PAYLOAD,2023-03-19 18:24:06,15.69923566,0.0002936,69.9976,317.3275,259.1318,100.9547,-7.4456e-06,-1.108e-05,0.0,0 STARLINK-5074,1 55438U 23014AZ  23078.76674588 -.00001108  00000-0 -74456-5 0  9999,2 55438  69.9976 317.3275 0002936 259.1318 100.9547 15.69923566  8534,6737.253,91.724,361.096,357.14,0.0
55438.0,STARLINK-5074,PAYLOAD,2023-03-20 02:02:51,15.69917463,0.0003041,69.9984,316.4298,259.9318,100.1534,4.4816e-05,5.178e-05,0.0,0 STARLINK-5074,1 55438U 23014AZ  23079.08531919  .00005178  00000-0  44816-4 0  9990,2 55438  69.9984 316.4298 0003041 259.9318 100.1534 15.69917463  7642,6737.27,91.725,361.184,357.086,0.0
55438.0,STARLINK-5074,PAYLOAD,2023-03-20 18:52:08,15.69926849,0.0003257,69.9972,314.4599,257.0824,103.0008,-5.1414e-06,-8.31e-06,0.0,0 STARLINK-5074,1 55438U 23014AZ  23079.78620786 -.00000831  00000-0 -51414-5 0  9994,2 55438  69.9972 314.4599 0003257 257.0824 103.0008 15.69926849  8693,6737.243,91.724,361.303,356.914,0.0
55438.0,STARLINK-5074,PAYLOAD,2023-03-21 00:59:08,15.6993688,0.0003102,69.9966,313.7427,251.0116,109.0744,6.1191e-06,5.23e-06,0.0,0 STARLINK-5074,1 55438U 23014AZ  23080.04106500  .00000523  00000-0  61191-5 0  9997,2 55438  69.9966 313.7427 0003102 251.0116 109.0744 15.69936880  7794,6737.215,91.723,361.169,356.99,0.0
55438.0,STARLINK-5074,PAYLOAD,2023-03-21 19:20:10,15.69915866,0.0003193,69.9963,311.5932,265.5571,94.526,8.0758e-06,7.58e-06,0.0,0 STARLINK-5074,1 55438U 23014AZ  23080.80568002  .00000758  00000-0  80758-5 0  9990,2 55438  69.9963 311.5932 0003193 265.5571  94.5260 15.69915866  7919,6737.275,91.725,361.291,356.988,0.0
55438.0,STARLINK-5074,PAYLOAD,2023-03-22 16:44:41,15.69929127,0.0003503,69.9951,309.0808,266.258,93.8215,-3.7342e-06,-6.62e-06,0.0,0 STARLINK-5074,1 55438U 23014AZ  23081.69770676 -.00000662  00000-0 -37342-5 0  9997,2 55438  69.9951 309.0808 0003503 266.2580  93.8215 15.69929127  8056,6737.237,91.724,361.462,356.742,0.0
55438.0,STARLINK-5074,PAYLOAD,2023-03-22 21:19:56,15.69946599,0.0003437,69.9969,308.5478,262.3753,97.7052,1.1543e-05,1.177e-05,0.0,0 STARLINK-5074,1 55438U 23014AZ  23081.88884391  .00001177  00000-0  11543-4 0  9992,2 55438  69.9969 308.5478 0003437 262.3753  97.7052 15.69946599  9029,6737.187,91.723,361.367,356.736,0.0
55438.0,STARLINK-5074,PAYLOAD,2023-03-23 00:23:27,15.69930714,0.0003498,69.9958,308.1893,262.6306,97.4492,-7.5013e-06,-1.115e-05,0.0,0 STARLINK-5074,1 55438U 23014AZ  23082.01628832 -.00001115  00000-0 -75013-5 0  9991,2 55438  69.9958 308.1893 0003498 262.6306  97.4492 15.69930714  9047,6737.232,91.724,361.454,356.741,0.0
55438.0,STARLINK-5074,PAYLOAD,2023-03-23 17:12:44,15.69925181,0.0003211,69.9984,306.2189,267.1727,92.9101,-8.5729e-06,-1.243e-05,0.0,0 STARLINK-5074,1 55438U 23014AZ  23082.71718140 -.00001243  00000-0 -85729-5 0  9997,2 55438  69.9984 306.2189 0003211 267.1727  92.9101 15.69925181  8210,6737.248,91.724,361.276,356.95,0.0
55438.0,STARLINK-5074,PAYLOAD,2023-03-24 00:51:27,15.69958573,0.0003306,69.9951,305.3228,268.3237,91.758,2.1008e-05,2.317e-05,0.0,0 STARLINK-5074,1 55438U 23014AZ  23083.03573599  .00002317  00000-0  21008-4 0  9990,2 55438  69.9951 305.3228 0003306 268.3237  91.7580 15.69958573  8266,6737.153,91.722,361.245,356.79,0.0
55438.0,STARLINK-5074,PAYLOAD,2023-03-24 16:09:00,15.69930231,0.0003172,69.9989,303.5348,248.6592,111.4265,-7.0951e-06,-1.066e-05,0.0,0 STARLINK-5074,1 55438U 23014AZ  23083.67292324 -.00001066  00000-0 -70951-5 0  9998,2 55438  69.9989 303.5348 0003172 248.6592 111.4265 15.69930231  8368,6737.234,91.724,361.236,356.962,0.0
55438.0,STARLINK-5074,PAYLOAD,2023-03-24 20:44:12,15.69985404,0.0003751,69.9966,302.9945,266.1455,93.9312,5.2028e-05,6.064e-05,0.0,0 STARLINK-5074,1 55438U 23014AZ  23083.86402789  .00006064  00000-0  52028-4 0  9992,2 55438  69.9966 302.9945 0003751 266.1455  93.9312 15.69985404  8397,6737.076,91.721,361.468,356.414,0.0
55438.0,STARLINK-5074,PAYLOAD,2023-03-24 22:15:56,15.69990659,0.0003581,69.9963,302.8164,259.5422,100.5371,4.9958e-05,5.815e-05,0.0,0 STARLINK-5074,1 55438U 23014AZ  23083.92773945  .00005815  00000-0  49958-4 0  9995,2 55438  69.9963 302.8164 0003581 259.5422 100.5371 15.69990659  9341,6737.061,91.72,361.338,356.513,0.0
55438.0,STARLINK-5074,PAYLOAD,2023-03-24 23:47:46,15.6992421,0.0003348,69.9965,302.636,263.3944,96.687,-1.779e-05,-2.351e-05,0.0,0 STARLINK-5074,1 55438U 23014AZ  23083.99150549 -.00002351  00000-0 -17790-4 0  9994,2 55438  69.9965 302.6360 0003348 263.3944  96.6870 15.69924210  8418,6737.251,91.724,361.371,356.86,0.0
